443P/PANSTARRS-Christensen,e,19.8879,108.9341,145.0769,4.124632,0.1176593,0.28296862,112.7783,05/25.0/2025,2000,g 13.5,4.0
# From MPEC 2023-VM5
444P/WISE-PANSTARRS,e,22.7323,88.1816,172.8663,3.471837,0.1523579,0.55818195,161.3300,05/25.0/2025,2000,g 17.0,4.0
# From MPEC 2024-BE0
445P/Lemmon-PANSTARRS,e,1.0888,126.5902,213.2181,4.046342,0.1210905,0.41412605,122.6359,05/25.0/2025,2000,g 15.0,4.0
# From MPEC 2024-NE4
446P/McNaught,e,16.6270,336.3414,344.6272,4.560282,0.1012084,0.64674663,110.5451,05/25.0/2025,2000,g 16.5,4.0
# From MPEC 2022-YB4
447P/Sheppard-Tholen,e,7.4410,302.6368,97.5341,5.626219,0.0738549,0.17732272,74.7750,05/25.0/2025,2000,g 12.0,4.0
# From MPEC 2024-PC5
448P/PANSTARRS,e,12.1452,161.7547,218.7999,3.636323,0.1421381,0.41818476,140.9757,05/25.0/2025,2000,g 16.0,4.0
# From MPEC 2024-DC6
449P/Leonard,e,15.4703,242.5223,176.7641,3.599862,0.1443030,0.47977804,236.8953,05/25.0/2025,2000,g 16.0,4.0
# From MPEC 2025-GB9
450P/LONEOS,e,10.6647,124.3134,23.3141,7.941927,0.0440367,0.31426966,332.8826,05/25.0/2025,2000,g  6.5,4.0
# From MPEC 2023-HD1
451P/Christensen,e,26.4844,300.8692,186.7886,6.349795,0.0615977,0.55921884,55.9957,05/25.0/2025,2000,g 15.5,4.0
# From MPEC 2024-NE4
452P/Sheppard-Jewitt,e,6.4219,123.6664,37.0932,7.310628,0.0498623,0.42852801,37.8977,05/25.0/2025,2000,g  9.0,4.0
# From MPEC 2023-RF3
453P/WISE-Lemmon,e,27.0604,42.8928,70.8959,5.467195,0.0771005,0.58313594,62.7330,05/25.0/2025,2000,g 14.0,4.0
# From MPEC 2023-CD7
454P/PANSTARRS,e,19.8098,54.5857,20.1904,4.211322,0.1140450,0.36144450,117.8482,05/25.0/2025,2000,g 14.0,4.0
# From MPEC 2022-Y14
455P/PANSTARRS,e,14.1350,146.1809,237.5343,3.153322,0.1760158,0.30446496,144.3412,05/25.0/2025,2000,g 17.0,4.0
# From MPC182892
456P/PANSTARRS,e,16.9655,243.1464,233.0143,3.169973,0.1746308,0.11600354,6.9885,05/25.0/2025,2000,g 13.5,4.0
# From MPEC 2025-A40
457P/Lemmon-PANSTARRS,e,5.2257,175.9634,104.3219,2.645190,0.2290967,0.11840078,63.6690,05/25.0/2025,2000,g 15.5,4.0
# From MPEC 2023-HD1
458P/Jahn,e,13.6223,1.5630,104.9288,3.859208,0.1300040,0.31725228,121.8457,05/25.0/2025,2000,g 17.3,4.0
# From MPEC 2024-N80
459P/Catalina,e,7.1737,256.9876,205.2240,3.240412,0.1689677,0.57785195,139.1184,05/25.0/2025,2000,g 15.5,4.0
# From MPEC 2023-G14
460P/PANSTARRS,e,18.8999,180.5167,351.9358,3.027205,0.1871291,0.66420921,269.3067,05/25.0/2025,2000,g 21.0,4.0
# From MPEC 2024-GJ3
461P/WISE,e,18.3996,194.3776,174.8317,3.144331,0.1767712,0.56959642,234.8416,05/25.0/2025,2000,g 18.5,4.0
# From MPEC 2024-BE0
462P/LONEOS-PANSTARRS,e,7.0442,322.6731,4.2356,4.863674,0.0918877,0.57841389,94.4397,05/25.0/2025,2000,g 17.0,4.0
# From MPEC 2024-GJ3
463P/NEOWISE,e,29.2958,283.2177,216.3408,2.974150,0.1921586,0.82587445,151.2611,05/25.0/2025,2000,g 18.0,4.0
# From MPEC 2024-Q20
464P/PANSTARRS,e,21.6732,309.5780,267.5331,4.684101,0.0972220,0.28055956,79.4949,05/25.0/2025,2000,g 10.5,4.0
# From MPEC 2024-NE4
465P/Hill,e,25.8620,217.9616,140.9895,6.009294,0.0669066,0.61318891,49.9796,05/25.0/2025,2000,g 12.5,4.0
# From MPEC 2024-JU4
466P/PANSTARRS,e,12.7114,118.2920,197.8709,4.046016,0.1211052,0.47628457,90.4517,05/25.0/2025,2000,g 14.0,4.0
# From MPEC 2025-A40
467P/LINEAR-Grauer,e,2.4792,43.2632,267.5107,5.826484,0.0700800,0.05454199,63.7710,05/25.0/2025,2000,g  9.0,4.0
# From MPEC 2024-O39
468P/SidingSpring,e,50.4515,356.1256,322.5785,7.117992,0.0519001,0.44501766,28.5905,05/25.0/2025,2000,g 11.5,4.0
# From MPEC 2025-A40
469P/PANSTARRS,e,20.1724,178.9674,43.4953,4.342369,0.1089216,0.30798021,338.4973,05/25.0/2025,2000,g 13.5,4.0
# From MPC182892
470P/PANSTARRS,e,8.8441,246.1706,151.7001,4.464281,0.1044905,0.38940835,54.8790,05/25.0/2025,2000,g 15.5,4.0
# From MPC182892
471P/LINEAR-Lemmon,e,4.7969,283.3118,94.8011,5.694965,0.0725216,0.62773638,37.8662,05/25.0/2025,2000,g 12.0,4.0
# From MPEC 2025-HB5
472P/NEAT-LINEAR,e,10.8239,205.8574,218.8475,7.783645,0.0453868,0.56477290,14.2858,05/25.0/2025,2000,g 10.5,4.0
# From MPEC 2024-MB8
473P/NEAT,e,56.8981,22.1896,42.9356,7.972313,0.0437852,0.82359965,19.8680,05/25.0/2025,2000,g 13.5,4.0
# From MPEC 2024-B74
474P/Hogan,e,1.0970,26.7492,11.2621,3.130467,0.1779469,0.18807690,120.8829,05/25.0/2025,2000,g 15.5,4.0
# From MPEC 2024-O39
475P/Spacewatch-LINEAR,e,14.5237,147.3614,40.4068,7.317238,0.0497947,0.44276566,17.7944,05/25.0/2025,2000,g 11.0,4.0
# From MPEC 2025-GB9
476P/PANSTARRS,e,19.0052,57.0507,46.7338,4.775302,0.0944502,0.34592500,20.8274,05/25.0/2025,2000,g 12.5,4.0
# From MPEC 2024-GJ3
477P/PANSTARRS,e,8.9138,59.1475,305.8826,3.002178,0.1894739,0.41751720,97.6668,05/25.0/2025,2000,g 14.5,4.0
# From MPEC 2024-L77
478P/ATLAS,e,12.5246,127.2638,13.2385,3.647808,0.1414673,0.34373534,54.8679,05/25.0/2025,2000,g 13.5,4.0
# From MPEC 2024-PC5
479P/Elenin,e,15.3996,295.8323,263.5082,5.623073,0.0739169,0.77889730,28.4391,05/25.0/2025,2000,g 15.0,4.0
# From MPC182893
480P/PANSTARRS,e,13.7168,229.9812,214.4053,4.610584,0.0995566,0.24633455,75.8912,05/25.0/2025,2000,g 12.0,4.0
# From MPEC 2025-A40
481P/Lemmon-PANSTARRS,e,6.0826,93.5504,356.7937,4.681415,0.0973057,0.34347450,66.7255,05/25.0/2025,2000,g 13.5,4.0
# From MPEC 2024-JU4
482P/PANSTARRS,e,24.4867,126.0788,339.7208,3.756771,0.1353574,0.49236590,97.8425,05/25.0/2025,2000,g 13.5,4.0
# From MPEC 2024-R10
483P-A/PANSTARRS,e,14.1938,199.3304,49.0675,3.194688,0.1726082,0.22253342,204.7857,05/25.0/2025,2000,g 13.5,4.0
# From MPEC 2024-R10
483P-B/PANSTARRS,e,14.1946,199.3297,49.0576,3.194614,0.1726142,0.22247444,204.8213,05/25.0/2025,2000,g 17.0,4.0
# From MPEC 2024-DD5
484P/Spacewatch,e,14.4744,265.3831,240.7940,3.757036,0.1353431,0.43290361,221.8623,05/25.0/2025,2000,g 16.0,4.0
# From MPEC 2024-JU4
485P/Sheppard-Tholen,e,10.0161,261.6448,196.0930,6.850594,0.0549682,0.41717994,35.1147,05/25.0/2025,2000,g 13.0,4.0
# From MPEC 2024-R10
486P/Leonard,e,2.2095,219.0239,93.9451,3.627932,0.1426315,0.36356693,7.2973,05/25.0/2025,2000,g 14.5,4.0
# From MPEC 2025-GB9
487P/SidingSpring,e,39.3661,49.2046,0.8451,5.162732,0.0840204,0.64848724,18.1820,05/25.0/2025,2000,g 13.5,4.0
# From MPEC 2024-UA9
488P/NEAT-PANSTARRS,e,11.3697,323.9781,1.6532,3.739107,0.1363177,0.55100619,50.5164,05/25.0/2025,2000,g 16.5,4.0
# From MPEC 2024-Q14
489P/Denning,e,4.0264,20.6104,109.4319,4.423746,0.1059300,0.64710501,339.5192,05/25.0/2025,2000,g 15.5,4.0
# From MPEC 2024-YC7
490P/ATLAS,e,12.2663,307.6025,332.5367,3.029835,0.1868855,0.64719715,44.6315,05/25.0/2025,2000,g 21.0,4.0
# From MPEC 2025-J92
491P/Spacewatch-PANSTARRS,e,9.3662,311.6847,298.8864,5.013452,0.0878009,0.25869788,22.9123,05/25.0/2025,2000,g  9.5,4.0
# From MPC182893
492P/LINEAR,e,11.4009,11.3059,40.9847,5.760279,0.0712917,0.69064402,21.9967,05/25.0/2025,2000,g 15.0,4.0
# From MPC182893
493P/LONEOS,e,24.1125,1.1081,83.1975,7.165368,0.0513862,0.46642397,347.9699,05/25.0/2025,2000,g 12.0,2.0
# From MPEC 2024-RQ6
494P/PANSTARRS,e,7.7900,245.0431,48.8769,3.794494,0.1333439,0.35685237,47.8711,05/25.0/2025,2000,g 16.0,4.0
# From MPEC 2025-A40
495P/Christensen,e,26.3546,291.6186,141.3392,4.755318,0.0950462,0.27241089,345.7046,05/25.0/2025,2000,g 11.5,4.0
# From MPEC 2025-J92
496P/Hill,e,14.8144,63.5866,42.2452,6.099587,0.0654265,0.73423866,4.9543,05/25.0/2025,2000,g 14.0,4.0
# From MPEC 2025-H10
497P/Spacewatch-PANSTARRS,e,10.4368,40.3755,32.4063,5.616059,0.0740554,0.63050270,7.3070,05/25.0/2025,2000,g 17.5,4.0
# From MPEC 2025-GB9
498P/LINEAR,e,14.4828,279.2309,179.0806,4.593021,0.1001282,0.57232370,15.7287,05/25.0/2025,2000,g 14.7,4.0
# From MPEC 2025-J92
499P/Catalina,e,24.5822,139.3092,2.5561,3.017550,0.1880279,0.69145526,15.3446,05/25.0/2025,2000,g 18.5,4.0
# From MPC107687
1I/`Oumuamua,h,09/09.4886/2017,122.6778,24.5997,241.6845,1.199252,0.255240,2000,23.0,2.0
# From MPEC 2023-L37
2I/Borisov,h,12/08.5548/2019,44.0527,308.1480,209.1251,3.356633,2.006548,2000,11.0,4.0
